{
  "type": "FeatureCollection",
  "features": [
    {
      "type": "Feature",
      "properties": {
        "norad_id": 34492,
        "name": "IRIDIUM 33 DEB",
        "group": "iridium-33-debris",
        "lat": 64.69515950573752,
        "lon": -15.871710135596055,
        "alt_km": 934.8687473745122,
        "timestamp": "2025-12-07T18:50:17.100084+00:00",
        "meta_object_name": "IRIDIUM 33 DEB",
        "meta_object_id": "1997-051GH",
        "meta_epoch": "2025-12-07T00:15:45.559008",
        "meta_mean_motion": 14.25493334,
        "meta_eccentricity": 0.01896852,
        "meta_inclination": 86.4725,
        "meta_ra_of_asc_node": 336.9443,
        "meta_arg_of_pericenter": 256.8217,
        "meta_mean_anomaly": 158.3608,
        "meta_ephemeris_type": 0,
        "meta_classification_type": "U",
        "meta_norad_cat_id": 34492,
        "meta_element_set_no": 999,
        "meta_rev_at_epoch": 84977,
        "meta_bstar": 0.008529506,
        "meta_mean_motion_dot": 0.00024407,
        "meta_mean_motion_ddot": 0,
        "tle_line1": "1 34492U 97051GH  25341.01094397  .00024407  00000+0  85295-2 0  9999",
        "tle_line2": "2 34492  86.4725 336.9443 0189685 256.8217 158.3608 14.25493334849770"
      },
      "geometry": {
        "type": "Point",
        "coordinates": [
          -15.871710135596055,
          64.69515950573752
        ]
      }
    },
    {
      "type": "Feature",
      "properties": {
        "norad_id": 34497,
        "name": "IRIDIUM 33 DEB",
        "group": "iridium-33-debris",
        "lat": -86.26130669025432,
        "lon": -40.538594064168855,
        "alt_km": 803.4193716943964,
        "timestamp": "2025-12-07T18:50:17.100094+00:00",
        "meta_object_name": "IRIDIUM 33 DEB",
        "meta_object_id": "1997-051GN",
        "meta_epoch": "2025-12-07T04:14:57.003360",
        "meta_mean_motion": 14.27428897,
        "meta_eccentricity": 0.00793764,
        "meta_inclination": 86.2782,
        "meta_ra_of_asc_node": 54.778,
        "meta_arg_of_pericenter": 357.6873,
        "meta_mean_anomaly": 31.1496,
        "meta_ephemeris_type": 0,
        "meta_classification_type": "U",
        "meta_norad_cat_id": 34497,
        "meta_element_set_no": 999,
        "meta_rev_at_epoch": 86804,
        "meta_bstar": 0.0010122974,
        "meta_mean_motion_dot": 2.585e-05,
        "meta_mean_motion_ddot": 0,
        "tle_line1": "1 34497U 97051GN  25341.17704865  .00002585  00000+0  10123-2 0  9990",
        "tle_line2": "2 34497  86.2782  54.7780 0079376 357.6873  31.1496 14.27428897868046"
      },
      "geometry": {
        "type": "Point",
        "coordinates": [
          -40.538594064168855,
          -86.26130669025432
        ]
      }
    },
    {
      "type": "Feature",
      "properties": {
        "norad_id": 34508,
        "name": "IRIDIUM 33 DEB",
        "group": "iridium-33-debris",
        "lat": -54.05547957521086,
        "lon": -70.23488641077925,
        "alt_km": 737.7471114193049,
        "timestamp": "2025-12-07T18:50:17.100104+00:00",
        "meta_object_name": "IRIDIUM 33 DEB",
        "meta_object_id": "1997-051GZ",
        "meta_epoch": "2025-12-07T07:44:12.489792",
        "meta_mean_motion": 14.38354073,
        "meta_eccentricity": 0.00657429,
        "meta_inclination": 86.371,
        "meta_ra_of_asc_node": 104.9397,
        "meta_arg_of_pericenter": 190.4936,
        "meta_mean_anomaly": 169.4895,
        "meta_ephemeris_type": 0,
        "meta_classification_type": "U",
        "meta_norad_cat_id": 34508,
        "meta_element_set_no": 999,
        "meta_rev_at_epoch": 87231,
        "meta_bstar": 0.0027823611,
        "meta_mean_motion_dot": 8.712e-05,
        "meta_mean_motion_ddot": 0,
        "tle_line1": "1 34508U 97051GZ  25341.32236678  .00008712  00000+0  27824-2 0  9996",
        "tle_line2": "2 34508  86.3710 104.9397 0065742 190.4936 169.4895 14.38354073872317"
      },
      "geometry": {
        "type": "Point",
        "coordinates": [
          -70.23488641077925,
          -54.05547957521086
        ]
      }
    },
    {
      "type": "Feature",
      "properties": {
        "norad_id": 34521,
        "name": "IRIDIUM 33 DEB",
        "group": "iridium-33-debris",
        "lat": -32.860995986005925,
        "lon": 30.38594612076848,
        "alt_km": 688.538519219439,
        "timestamp": "2025-12-07T18:50:17.100114+00:00",
        "meta_object_name": "IRIDIUM 33 DEB",
        "meta_object_id": "1997-051HN",
        "meta_epoch": "2025-12-07T02:34:34.768704",
        "meta_mean_motion": 14.63292122,
        "meta_eccentricity": 0.00010763,
        "meta_inclination": 86.38,
        "meta_ra_of_asc_node": 33.0278,
        "meta_arg_of_pericenter": 256.8905,
        "meta_mean_anomaly": 103.2186,
        "meta_ephemeris_type": 0,
        "meta_classification_type": "U",
        "meta_norad_cat_id": 34521,
        "meta_element_set_no": 999,
        "meta_rev_at_epoch": 88390,
        "meta_bstar": 0.001478161,
        "meta_mean_motion_dot": 7.646e-05,
        "meta_mean_motion_ddot": 0,
        "tle_line1": "1 34521U 97051HN  25341.10734686  .00007646  00000+0  14782-2 0  9993",
        "tle_line2": "2 34521  86.3800  33.0278 0001076 256.8905 103.2186 14.63292122883905"
      },
      "geometry": {
        "type": "Point",
        "coordinates": [
          30.38594612076848,
          -32.860995986005925
        ]
      }
    },
    {
      "type": "Feature",
      "properties": {
        "norad_id": 34525,
        "name": "IRIDIUM 33 DEB",
        "group": "iridium-33-debris",
        "lat": 29.609718403550822,
        "lon": -133.10657445195702,
        "alt_km": 744.2817964057149,
        "timestamp": "2025-12-07T18:50:17.100124+00:00",
        "meta_object_name": "IRIDIUM 33 DEB",
        "meta_object_id": "1997-051HS",
        "meta_epoch": "2025-12-06T03:59:55.296672",
        "meta_mean_motion": 14.42880527,
        "meta_eccentricity": 0.00065785,
        "meta_inclination": 86.3735,
        "meta_ra_of_asc_node": 49.6493,
        "meta_arg_of_pericenter": 110.3274,
        "meta_mean_anomaly": 279.0864,
        "meta_ephemeris_type": 0,
        "meta_classification_type": "U",
        "meta_norad_cat_id": 34525,
        "meta_element_set_no": 999,
        "meta_rev_at_epoch": 87993,
        "meta_bstar": 0.0007253314,
        "meta_mean_motion_dot": 2.441e-05,
        "meta_mean_motion_ddot": 0,
        "tle_line1": "1 34525U 97051HS  25340.16661223  .00002441  00000+0  72533-3 0  9995",
        "tle_line2": "2 34525  86.3735  49.6493 0006578 110.3274 279.0864 14.42880527879935"
      },
      "geometry": {
        "type": "Point",
        "coordinates": [
          -133.10657445195702,
          29.609718403550822
        ]
      }
    },
    {
      "type": "Feature",
      "properties": {
        "norad_id": 34529,
        "name": "IRIDIUM 33 DEB",
        "group": "iridium-33-debris",
        "lat": 84.28576038832281,
        "lon": 76.97026242942765,
        "alt_km": 749.9762514648519,
        "timestamp": "2025-12-07T18:50:17.100134+00:00",
        "meta_object_name": "IRIDIUM 33 DEB",
        "meta_object_id": "1997-051HW",
        "meta_epoch": "2025-12-07T03:26:19.710816",
        "meta_mean_motion": 14.40609037,
        "meta_eccentricity": 0.00041082,
        "meta_inclination": 86.3646,
        "meta_ra_of_asc_node": 37.7974,
        "meta_arg_of_pericenter": 196.1926,
        "meta_mean_anomaly": 163.9143,
        "meta_ephemeris_type": 0,
        "meta_classification_type": "U",
        "meta_norad_cat_id": 34529,
        "meta_element_set_no": 999,
        "meta_rev_at_epoch": 88061,
        "meta_bstar": 0.00021290228,
        "meta_mean_motion_dot": 6.98e-06,
        "meta_mean_motion_ddot": 0,
        "tle_line1": "1 34529U 97051HW  25341.14328369  .00000698  00000+0  21290-3 0  9995",
        "tle_line2": "2 34529  86.3646  37.7974 0004108 196.1926 163.9143 14.40609037880616"
      },
      "geometry": {
        "type": "Point",
        "coordinates": [
          76.97026242942765,
          84.28576038832281
        ]
      }
    },
    {
      "type": "Feature",
      "properties": {
        "norad_id": 34538,
        "name": "IRIDIUM 33 DEB",
        "group": "iridium-33-debris",
        "lat": -66.27044829800737,
        "lon": -163.75582845435514,
        "alt_km": 760.6075155249009,
        "timestamp": "2025-12-07T18:50:17.100145+00:00",
        "meta_object_name": "IRIDIUM 33 DEB",
        "meta_object_id": "1997-051JF",
        "meta_epoch": "2025-12-07T06:38:08.723904",
        "meta_mean_motion": 14.42600183,
        "meta_eccentricity": 0.00334838,
        "meta_inclination": 86.2771,
        "meta_ra_of_asc_node": 7.9488,
        "meta_arg_of_pericenter": 346.4929,
        "meta_mean_anomaly": 141.5957,
        "meta_ephemeris_type": 0,
        "meta_classification_type": "U",
        "meta_norad_cat_id": 34538,
        "meta_element_set_no": 999,
        "meta_rev_at_epoch": 87677,
        "meta_bstar": 0.0014728578,
        "meta_mean_motion_dot": 4.942e-05,
        "meta_mean_motion_ddot": 0,
        "tle_line1": "1 34538U 97051JF  25341.27648986  .00004942  00000+0  14729-2 0  9993",
        "tle_line2": "2 34538  86.2771   7.9488 0033483 346.4929 141.5957 14.42600183876776"
      },
      "geometry": {
        "type": "Point",
        "coordinates": [
          -163.75582845435514,
          -66.27044829800737
        ]
      }
    }
  ]
}